[{"OBJECT_NAME":"GSAT0218 (GALILEO 22)","OBJECT_ID":"2017-079D","EPOCH":"2026-03-01T05:31:11.512704","MEAN_MOTION":1.70474409,"ECCENTRICITY":0.0001889,"INCLINATION":55.1053,"RA_OF_ASC_NODE":224.4697,"ARG_OF_PERICENTER":305.5636,"MEAN_ANOMALY":54.3694,"EPHEMERIS_TYPE":0,"CLASSIFICATION_TYPE":"U","NORAD_CAT_ID":43058,"ELEMENT_SET_NO":999,"REV_AT_EPOCH":5117,"BSTAR":0,"MEAN_MOTION_DOT":1.8e-7,"MEAN_MOTION_DDOT":0},{"OBJECT_NAME":"GOES 17","OBJECT_ID":"2018-022A","EPOCH":"2026-03-03T03:33:38.719584","MEAN_MOTION":1.00270443,"ECCENTRICITY":0.0002322,"INCLINATION":0.6649,"RA_OF_ASC_NODE":87.5818,"ARG_OF_PERICENTER":219.7732,"MEAN_ANOMALY":177.466,"EPHEMERIS_TYPE":0,"CLASSIFICATION_TYPE":"U","NORAD_CAT_ID":43226,"ELEMENT_SET_NO":999,"REV_AT_EPOCH":2936,"BSTAR":0,"MEAN_MOTION_DOT":-1.98e-6,"MEAN_MOTION_DDOT":0},{"OBJECT_NAME":"GSAT0221 (GALILEO 25)","OBJECT_ID":"2018-060A","EPOCH":"2026-02-28T13:07:14.911104","MEAN_MOTION":1.70475369,"ECCENTRICITY":0.00058048,"INCLINATION":57.2051,"RA_OF_ASC_NODE":344.7173,"ARG_OF_PERICENTER":306.7848,"MEAN_ANOMALY":53.1689,"EPHEMERIS_TYPE":0,"CLASSIFICATION_TYPE":"U","NORAD_CAT_ID":43564,"ELEMENT_SET_NO":999,"REV_AT_EPOCH":4731,"BSTAR":0,"MEAN_MOTION_DOT":-1.05e-6,"MEAN_MOTION_DDOT":0},{"OBJECT_NAME":"GSAT0222 (GALILEO 26)","OBJECT_ID":"2018-060B","EPOCH":"2026-02-24T15:50:30.088608","MEAN_MOTION":1.70474973,"ECCENTRICITY":0.0004435,"INCLINATION":57.2093,"RA_OF_ASC_NODE":344.8256,"ARG_OF_PERICENTER":285.482,"MEAN_ANOMALY":74.4799,"EPHEMERIS_TYPE":0,"CLASSIFICATION_TYPE":"U","NORAD_CAT_ID":43565,"ELEMENT_SET_NO":999,"REV_AT_EPOCH":4729,"BSTAR":0,"MEAN_MOTION_DOT":-9.2e-7,"MEAN_MOTION_DDOT":0},{"OBJECT_NAME":"GSAT0219 (GALILEO 23)","OBJECT_ID":"2018-060C","EPOCH":"2026-02-22T12:50:02.521824","MEAN_MOTION":1.70475208,"ECCENTRICITY":0.0005774,"INCLINATION":57.2094,"RA_OF_ASC_NODE":344.8846,"ARG_OF_PERICENTER":308.6957,"MEAN_ANOMALY":51.2673,"EPHEMERIS_TYPE":0,"CLASSIFICATION_TYPE":"U","NORAD_CAT_ID":43566,"ELEMENT_SET_NO":999,"REV_AT_EPOCH":4723,"BSTAR":0,"MEAN_MOTION_DOT":-8.2e-7,"MEAN_MOTION_DDOT":0},{"OBJECT_NAME":"GSAT0220 (GALILEO 24)","OBJECT_ID":"2018-060D","EPOCH":"2026-02-27T10:45:41.962176","MEAN_MOTION":1.70475159,"ECCENTRICITY":0.0005301,"INCLINATION":57.2075,"RA_OF_ASC_NODE":344.7516,"ARG_OF_PERICENTER":308.5821,"MEAN_ANOMALY":51.3768,"EPHEMERIS_TYPE":0,"CLASSIFICATION_TYPE":"U","NORAD_CAT_ID":43567,"ELEMENT_SET_NO":999,"REV_AT_EPOCH":4730,"BSTAR":0,"MEAN_MOTION_DOT":-1.02e-6,"MEAN_MOTION_DDOT":0},{"OBJECT_NAME":"BEIDOU-3 M13","OBJECT_ID":"2018-072A","EPOCH":"2026-03-02T03:28:31.522656","MEAN_MOTION":1.86230769,"ECCENTRICITY":0.00088851,"INCLINATION":56.5306,"RA_OF_ASC_NODE":66.1905,"ARG_OF_PERICENTER":307.5967,"MEAN_ANOMALY":52.3573,"EPHEMERIS_TYPE":0,"CLASSIFICATION_TYPE":"U","NORAD_CAT_ID":43622,"ELEMENT_SET_NO":999,"REV_AT_EPOCH":5066,"BSTAR":0,"MEAN_MOTION_DOT":-7.0e-8,"MEAN_MOTION_DDOT":0},{"OBJECT_NAME":"BEIDOU-3 M14","OBJECT_ID":"2018-072B","EPOCH":"2026-03-02T00:14:47.067072","MEAN_MOTION":1.86230813,"ECCENTRICITY":0.00063444,"INCLINATION":56.5324,"RA_OF_ASC_NODE":66.189,"ARG_OF_PERICENTER":328.5825,"MEAN_ANOMALY":31.415,"EPHEMERIS_TYPE":0,"CLASSIFICATION_TYPE":"U","NORAD_CAT_ID":43623,"ELEMENT_SET_NO":999,"REV_AT_EPOCH":5065,"BSTAR":0,"MEAN_MOTION_DOT":-6.0e-8,"MEAN_MOTION_DDOT":0},{"OBJECT_NAME":"GPS BIII-1","OBJECT_ID":"2018-109A","EPOCH":"2026-03-02T13:20:28.827744","MEAN_MOTION":2.00556616,"ECCENTRICITY":0.0037879,"INCLINATION":55.6138,"RA_OF_ASC_NODE":96.3922,"ARG_OF_PERICENTER":198.2365,"MEAN_ANOMALY":334.0151,"EPHEMERIS_TYPE":0,"CLASSIFICATION_TYPE":"U","NORAD_CAT_ID":43873,"ELEMENT_SET_NO":999,"REV_AT_EPOCH":5293,"BSTAR":0,"MEAN_MOTION_DOT":2.2e-7,"MEAN_MOTION_DDOT":0},{"OBJECT_NAME":"METEOR-M2 2","OBJECT_ID":"2019-038A","EPOCH":"2026-03-03T05:48:30.396672","MEAN_MOTION":14.24330904,"ECCENTRICITY":0.0001255,"INCLINATION":98.907,"RA_OF_ASC_NODE":48.0046,"ARG_OF_PERICENTER":15.1716,"MEAN_ANOMALY":344.9499,"EPHEMERIS_TYPE":0,"CLASSIFICATION_TYPE":"U","NORAD_CAT_ID":44387,"ELEMENT_SET_NO":999,"REV_AT_EPOCH":34621,"BSTAR":0.00011245,"MEAN_MOTION_DOT":2.14e-6,"MEAN_MOTION_DDOT":0},{"OBJECT_NAME":"GPS BIII-2","OBJECT_ID":"2019-056A","EPOCH":"2026-03-03T04:35:28.841856","MEAN_MOTION":2.00568213,"ECCENTRICITY":0.0058023,"INCLINATION":55.6853,"RA_OF_ASC_NODE":335.3576,"ARG_OF_PERICENTER":198.177,"MEAN_ANOMALY":333.1087,"EPHEMERIS_TYPE":0,"CLASSIFICATION_TYPE":"U","NORAD_CAT_ID":44506,"ELEMENT_SET_NO":999,"REV_AT_EPOCH":4794,"BSTAR":0,"MEAN_MOTION_DOT":-9.8e-7,"MEAN_MOTION_DDOT":0},{"OBJECT_NAME":"BEIDOU-3 M24","OBJECT_ID":"2019-061A","EPOCH":"2026-03-02T09:19:06.024288","MEAN_MOTION":1.86228769,"ECCENTRICITY":0.00086105,"INCLINATION":54.3994,"RA_OF_ASC_NODE":186.3291,"ARG_OF_PERICENTER":21.333,"MEAN_ANOMALY":338.6547,"EPHEMERIS_TYPE":0,"CLASSIFICATION_TYPE":"U","NORAD_CAT_ID":44542,"ELEMENT_SET_NO":999,"REV_AT_EPOCH":4380,"BSTAR":0,"MEAN_MOTION_DOT":-2.7e-7,"MEAN_MOTION_DDOT":0},{"OBJECT_NAME":"BEIDOU-3 M23","OBJECT_ID":"2019-061B","EPOCH":"2026-03-02T12:47:11.149152","MEAN_MOTION":1.86227187,"ECCENTRICITY":0.00050865,"INCLINATION":54.3977,"RA_OF_ASC_NODE":186.2925,"ARG_OF_PERICENTER":14.2516,"MEAN_ANOMALY":354.8811,"EPHEMERIS_TYPE":0,"CLASSIFICATION_TYPE":"U","NORAD_CAT_ID":44543,"ELEMENT_SET_NO":999,"REV_AT_EPOCH":4381,"BSTAR":0,"MEAN_MOTION_DOT":-2.6e-7,"MEAN_MOTION_DDOT":0},{"OBJECT_NAME":"BEIDOU-3 M22","OBJECT_ID":"2019-078A","EPOCH":"2026-02-28T01:54:59.619744","MEAN_MOTION":1.86231871,"ECCENTRICITY":0.00072213,"INCLINATION":54.0347,"RA_OF_ASC_NODE":303.6688,"ARG_OF_PERICENTER":34.9561,"MEAN_ANOMALY":325.1493,"EPHEMERIS_TYPE":0,"CLASSIFICATION_TYPE":"U","NORAD_CAT_ID":44793,"ELEMENT_SET_NO":999,"REV_AT_EPOCH":4261,"BSTAR":0,"MEAN_MOTION_DOT":-3.9e-7,"MEAN_MOTION_DDOT":0},{"OBJECT_NAME":"BEIDOU-3 M21","OBJECT_ID":"2019-078B","EPOCH":"2026-03-02T08:48:44.906688","MEAN_MOTION":1.86227509,"ECCENTRICITY":0.0005915,"INCLINATION":54.0055,"RA_OF_ASC_NODE":303.5509,"ARG_OF_PERICENTER":39.6239,"MEAN_ANOMALY":320.4796,"EPHEMERIS_TYPE":0,"CLASSIFICATION_TYPE":"U","NORAD_CAT_ID":44794,"ELEMENT_SET_NO":999,"REV_AT_EPOCH":4266,"BSTAR":0,"MEAN_MOTION_DOT":-4.9e-7,"MEAN_MOTION_DDOT":0},{"OBJECT_NAME":"ELEKTRO-L 3","OBJECT_ID":"2019-095A","EPOCH":"2026-03-03T04:10:09.439968","MEAN_MOTION":1.00266961,"ECCENTRICITY":0.0001601,"INCLINATION":0.0049,"RA_OF_ASC_NODE":233.3005,"ARG_OF_PERICENTER":93.0368,"MEAN_ANOMALY":333.1326,"EPHEMERIS_TYPE":0,"CLASSIFICATION_TYPE":"U","NORAD_CAT_ID":44903,"ELEMENT_SET_NO":999,"REV_AT_EPOCH":2264,"BSTAR":0,"MEAN_MOTION_DOT":0,"MEAN_MOTION_DDOT":0},{"OBJECT_NAME":"GPS BIII-3","OBJECT_ID":"2020-041A","EPOCH":"2026-03-02T05:22:22.585728","MEAN_MOTION":2.00560558,"ECCENTRICITY":0.0061351,"INCLINATION":56.6045,"RA_OF_ASC_NODE":33.0935,"ARG_OF_PERICENTER":205.2559,"MEAN_ANOMALY":289.6941,"EPHEMERIS_TYPE":0,"CLASSIFICATION_TYPE":"U","NORAD_CAT_ID":45854,"ELEMENT_SET_NO":999,"REV_AT_EPOCH":4189,"BSTAR":0,"MEAN_MOTION_DOT":-7.3e-7,"MEAN_MOTION_DDOT":0}]
